[{"OBJECT_NAME":"LEMUR-2-UNTITLED-SC","OBJECT_ID":"2025-061A","EPOCH":"2026-03-09T21:24:38.388672","MEAN_MOTION":15.12695529,"ECCENTRICITY":0.00173727,"INCLINATION":97.5556,"RA_OF_ASC_NODE":45.0864,"ARG_OF_PERICENTER":245.603,"MEAN_ANOMALY":114.3388,"EPHEMERIS_TYPE":0,"CLASSIFICATION_TYPE":"U","NORAD_CAT_ID":63351,"ELEMENT_SET_NO":999,"REV_AT_EPOCH":5257,"BSTAR":0.00033295729,"MEAN_MOTION_DOT":5.783e-5,"MEAN_MOTION_DDOT":0},{"OBJECT_NAME":"CZ-6A DEB","OBJECT_ID":"2024-140AF","EPOCH":"2026-03-09T22:09:11.094912","MEAN_MOTION":15.07921552,"ECCENTRICITY":0.0088688,"INCLINATION":88.2867,"RA_OF_ASC_NODE":226.5959,"ARG_OF_PERICENTER":92.2632,"MEAN_ANOMALY":268.8765,"EPHEMERIS_TYPE":0,"CLASSIFICATION_TYPE":"U","NORAD_CAT_ID":60630,"ELEMENT_SET_NO":999,"REV_AT_EPOCH":8531,"BSTAR":0.0046395908,"MEAN_MOTION_DOT":0.00078672,"MEAN_MOTION_DDOT":0}]
